LINGQIAO VIDEO A        
1 40959U 15057B   26165.24607398  .00000605  00000+0  91781-4 0  9994
2 40959  97.6614 160.1930 0015232 281.0974  78.8525 14.77389559574971
LINGQIAO VIDEO B        
1 40960U 15057C   26165.22295860  .00000979  00000+0  14391-3 0  9996
2 40960  97.6580 161.3351 0015370 281.0891  78.8591 14.77496854575012
JILIN-1                 
1 40961U 15057D   26165.23782456  .00000750  00000+0  11010-3 0  9992
2 40961  97.6508 164.7510 0015319 273.6717  86.2743 14.78156078575175
FOX-1A (AO-85)          
1 40967U 15058D   26165.06588971  .00002476  00000+0  22792-3 0  9992
2 40967  64.7761 288.6834 0130258  57.8004 303.5661 14.90956726113100
SINOD-D 1               
1 40968U 15058E   26165.00303341  .00003470  00000+0  28236-3 0  9997
2 40968  64.7761 268.8837 0118842  54.3509 306.8602 14.95888248116181
ELEKTRO-L 2             
1 41105U 15074A   26165.04412756 -.00000114  00000+0  00000+0 0  9992
2 41105   6.6845  70.5612 0000705 243.9352 309.2359  1.00270718 38472
DAMPE                   
1 41173U 15078A   26165.16147300  .00001218  00000+0  43471-4 0  9993
2 41173  97.4555 170.6136 0013833  86.6847 273.5976 15.30778039584081
ORBCOMM FM114           
1 41179U 15081A   26164.28024829  .00000433  00000+0  12794-3 0  9996
2 41179  47.0060  20.4759 0002252 192.2086 167.8745 14.58854678557187
ORBCOMM FM110           
1 41182U 15081D   26164.88507610  .00000665  00000+0  17689-3 0  9995
2 41182  47.0032  17.0560 0002606  55.8487 304.2646 14.58876174557142
ORBCOMM FM112           
1 41184U 15081F   26165.06091727  .00000570  00000+0  15667-3 0  9994
2 41184  46.9998 285.0310 0003554 204.6631 155.4085 14.58900185558493
ORBCOMM FM113           
1 41185U 15081G   26163.05131900  .00000335  00000+0  10705-3 0  9997
2 41185  47.0017 294.9070 0001998 204.7602 155.3188 14.58853293558185
ORBCOMM FM108           
1 41187U 15081J   26164.38348595  .00000377  00000+0  11596-3 0  9991
2 41187  47.0056 200.1825 0002734 209.5581 150.5151 14.58866983559521
ORBCOMM FM117           
1 41188U 15081K   26164.82839462  .00000325  00000+0  10492-3 0  9996
2 41188  46.9996 196.7126 0003310 211.3571 148.7118 14.58863203559634
ORBCOMM FM116           
1 41189U 15081L   26165.01434113  .00000596  00000+0  16223-3 0  9991
2 41189  47.0030 285.6241 0000716  38.4671 321.6265 14.58879012558479
HORYU-4                 
1 41340U 16012D   26165.18331444  .00430944  66472-4  11344-2 0  9998
2 41340  30.9846 101.0543 0004612 251.9493 108.0665 15.93563943570336
ZIYUAN 3-02 (ZY 3-02)   
1 41556U 16033A   26165.16436586  .00005876  00000+0  26411-3 0  9995
2 41556  97.3842 240.9966 0011268 301.8734  58.1405 15.21456049557520
CARTOSAT-2C             
1 41599U 16040A   26165.16247613  .00004680  00000+0  22469-3 0  9992
2 41599  97.4494 225.1817 0010343 140.9262 219.2721 15.19297476553253
LAPAN-A3                
1 41603U 16040E   26165.18874387  .00003307  00000+0  10564-3 0  9992
2 41603  97.1482 161.4328 0011230  35.8255 324.3739 15.33087188554354
GAOFEN-3                
1 41727U 16049A   26165.23947718  .00000096  00000+0  42268-4 0  9992
2 41727  98.4009 173.0698 0001333  98.6633 261.4708 14.42215350518225
CAS-2T & KS-1Q          
1 41847U 16066G   26165.19312684  .00001608  00000+0  23241-3 0  9996
2 41847  98.3820 240.9636 0342703 138.5317 224.2432 14.44685244504362
YUNHAI-1 01             
1 41857U 16068A   26165.23318065  .00000160  00000+0  75102-4 0  9999
2 41857  98.5829 176.2675 0006289  50.3074 309.8664 14.32703255501404
RESOURCESAT-2A          
1 41877U 16074A   26165.18512988  .00000240  00000+0  12947-3 0  9998
2 41877  98.7532 238.7137 0003340  90.1944 269.9616 14.21615856493870
TANSAT                  
1 41898U 16081A   26165.23292200  .00000437  00000+0  10159-3 0  9998
2 41898  98.5358 165.4031 0019748 321.8589  38.1211 14.59949271504191
JILIN-1 03              
1 41914U 17002B   26165.16969367  .00012973  00000+0  31097-3 0  9990
2 41914  97.1940 172.2966 0006436 163.6020 196.5437 15.41510758521393
CARTOSAT-2D             
1 41948U 17008A   26165.19462742  .00004316  00000+0  20759-3 0  9996
2 41948  97.4113 224.5561 0003734 241.5938 118.4921 15.19313753517127
